BEIDOU-2 IGSO-1 (C06)   
1 36828U 10036A   26188.62304566 -.00000058  00000+0  00000+0 0  9996
2 36828  54.3062 162.7756 0059224 225.1869 229.2421  1.00266308 58302
BEIDOU-2 G4 (C04)       
1 37210U 10057A   26189.42584756 -.00000101  00000+0  00000+0 0  9994
2 37210   3.6961  68.8182 0005261 185.7054 345.1185  1.00270637 57507
BEIDOU-2 IGSO-2 (C07)   
1 37256U 10068A   26188.66540134 -.00000203  00000+0  00000+0 0  9996
2 37256  47.5102 271.5779 0056836 213.5507 148.3457  1.00276167 57007
BEIDOU-2 IGSO-3 (C08)   
1 37384U 11013A   26187.52460699 -.00000170  00000+0  00000+0 0  9993
2 37384  62.4337  39.9702 0035245 183.2519 357.0849  1.00262965 55850
BEIDOU-2 IGSO-4 (C09)   
1 37763U 11038A   26187.84005391  .00000048  00000+0  00000+0 0  9993
2 37763  54.6039 165.4986 0160070 231.4311 284.4062  1.00281732 54844
BEIDOU-2 IGSO-5 (C10)   
1 37948U 11073A   26183.72937883 -.00000128  00000+0  00000+0 0  9990
2 37948  47.6496 271.3544 0114527 222.0502 141.5350  1.00270596 53296
BEIDOU-2 G5 (C05)       
1 38091U 12008A   26189.15478096  .00000070  00000+0  00000+0 0  9993
2 38091   3.6226  69.5690 0007395 272.8832  58.1023  1.00268862 52574
BEIDOU-2 M3 (C11)       
1 38250U 12018A   26188.59310414 -.00000065  00000+0  00000+0 0  9992
2 38250  55.7391 304.1881 0020667 272.8507  86.9321  1.86230177 96321
BEIDOU-2 M4 (C12)       
1 38251U 12018B   26186.91456642 -.00000061  00000+0  00000+0 0  9997
2 38251  55.6406 303.4567 0011823 273.7127  86.1743  1.86229838 96291
BEIDOU-2 M6 (C14)       
1 38775U 12050B   26188.23508586 -.00000043  00000+0  00000+0 0  9996
2 38775  56.5614  62.2316 0013130   0.5124 359.5520  1.86230940 93687
BEIDOU-2 G6 (C02)       
1 38953U 12059A   26189.30225785 -.00000163  00000+0  00000+0 0  9992
2 38953   4.4715  73.3000 0008988 330.0949  75.6428  1.00268743 50126
BEIDOU-3S IGSO-1S (C31) 
1 40549U 15019A   26183.80025122 -.00000190  00000+0  00000+0 0  9997
2 40549  49.1798 295.2769 0076860 219.1125 144.2493  1.00680073 41232
BEIDOU-3S M2S (C58)     
1 40748U 15037A   26188.72745806 -.00000064  00000+0  00000+0 0  9992
2 40748  54.8512 301.3397 0009226 257.5297 102.3896  1.86232376 74505
BEIDOU-3S M1S (C57)     
1 40749U 15037B   26189.46923660 -.00000065  00000+0  00000+0 0  9992
2 40749  54.8472 301.3010 0002900  63.4751 296.5756  1.86254806 74529
BEIDOU-3S IGSO-2S (C56) 
1 40938U 15053A   26188.66271316 -.00000110  00000+0  00000+0 0  9996
2 40938  49.1900 258.5391 0065957 192.8471 166.7469  1.00255142 39557
BEIDOU-2 IGSO-6 (C13)   
1 41434U 16021A   26177.11016981 -.00000145  00000+0  00000+0 0  9995
2 41434  60.2385  37.9495 0057558 231.0163 137.2672  1.00258926 37578
BEIDOU-2 G7 (C03)       
1 41586U 16037A   26189.57001676 -.00000339  00000+0  00000+0 0  9993
2 41586   1.7695  69.4685 0006331   6.3119 166.3927  1.00265666  7109
BEIDOU-3 M1 (C19)       
1 43001U 17069A   26189.07433231 -.00000045  00000+0  00000+0 0  9998
2 43001  56.7093  62.3976 0009478 327.6447  32.3589  1.86231359 58993
BEIDOU-3 M2 (C20)       
1 43002U 17069B   26187.93921887 -.00000042  00000+0  00000+0 0  9998
2 43002  56.7078  62.4704 0008592 355.0487   5.0065  1.86231060 58964
BEIDOU-3 M7 (C27)       
1 43107U 18003A   26189.29199238 -.00000066  00000+0  00000+0 0  9997
2 43107  54.3077 301.5793 0004480  97.6666 262.4055  1.86228440 57749
BEIDOU-3 M8 (C28)       
1 43108U 18003B   26188.16254439 -.00000063  00000+0  00000+0 0  9995
2 43108  54.3015 301.6004 0002979 257.8270 102.1630  1.86231031 57738
BEIDOU-3 M4 (C22)       
1 43207U 18018A   26188.06871672 -.00000042  00000+0  00000+0 0  9991
2 43207  56.6676  62.4940 0007428  26.7445 333.3571  1.86231345 57110
BEIDOU-3 M3 (C21)       
1 43208U 18018B   26187.59825105 -.00000041  00000+0  00000+0 0  9998
2 43208  56.6666  62.5134 0007880 344.5989  15.4415  1.86231254 57105
BEIDOU-3 M9 (C29)       
1 43245U 18029A   26189.42706904 -.00000063  00000+0  00000+0 0  9994
2 43245  54.1736 299.2068 0001095 182.3611 177.6623  1.86228291 56292
BEIDOU-3 M10 (C30)      
1 43246U 18029B   26189.36131531 -.00000063  00000+0  00000+0 0  9996
2 43246  54.1716 299.2350 0003338  36.6970 323.3498  1.86229518 56277
BEIDOU-2 IGSO-7 (C16)   
1 43539U 18057A   26182.89122331 -.00000033  00000+0  00000+0 0  9998
2 43539  55.1981 162.9292 0104946 237.8611 308.6338  1.00246939 29273
BEIDOU-3 M5 (C23)       
1 43581U 18062A   26189.04832522  .00000121  00000+0  00000+0 0  9992
2 43581  54.0865 181.5948 0005713 291.4291  68.5184  1.86228784 54020
BEIDOU-3 M6 (C24)       
1 43582U 18062B   26188.37493262  .00000119  00000+0  00000+0 0  9999
2 43582  54.0860 181.6071 0005088   9.1977 350.8186  1.86227975 54013
BEIDOU-3 M12 (C26)      
1 43602U 18067A   26188.31336324  .00000118  00000+0  00000+0 0  9995
2 43602  54.1816 180.3578 0007908  30.2614 329.7892  1.86227798 53495
BEIDOU-3 M11 (C25)      
1 43603U 18067B   26188.98544538  .00000120  00000+0  00000+0 0  9990
2 43603  54.1790 180.2986 0004631  13.6322 346.3866  1.86227293 53531
BEIDOU-3 M13 (C32)      
1 43622U 18072A   26188.94016875 -.00000045  00000+0  00000+0 0  9998
2 43622  56.6423  61.9754 0006476 331.9644  28.0627  1.86231552 53040
BEIDOU-3 M14 (C33)      
1 43623U 18072B   26187.73170765 -.00000042  00000+0  00000+0 0  9991
2 43623  56.6432  62.0091 0005560   9.9346 350.1406  1.86231254 53011
BEIDOU-3 M16 (C35)      
1 43647U 18078A   26188.42370037 -.00000062  00000+0  00000+0 0  9996
2 43647  54.0702 299.2766 0006751  40.2464 319.8292  1.86232245 52536
BEIDOU-3 M15 (C34)      
1 43648U 18078B   26187.47907947 -.00000060  00000+0  00000+0 0  9995
2 43648  54.0667 299.3099 0003770  58.5392 301.5247  1.86232415 52534
BEIDOU-3 G1 (C59)       
1 43683U 18085A   26189.55170373 -.00000096  00000+0  00000+0 0  9997
2 43683   2.9191  96.8125 0008354 354.7749 193.4642  1.00273338 28273
BEIDOU-3 M17 (C36)      
1 43706U 18093A   26189.35426284  .00000121  00000+0  00000+0 0  9993
2 43706  54.1700 181.5784 0010163 293.2680 135.4214  1.86228274 51932
BEIDOU-3 M18 (C37)      
1 43707U 18093B   26189.11529016  .00000121  00000+0  00000+0 0  9995
2 43707  54.1710 181.5786 0008055 321.5871  38.3641  1.86226650 51920
BEIDOU-3 IGSO-1 (C38)   
1 44204U 19023A   26188.39613446 -.00000208  00000+0  00000+0 0  9999
2 44204  58.7230  37.4430 0025584 223.9763 285.4775  1.00285689  7417
BEIDOU-2 G8 (C01)       
1 44231U 19027A   26189.45684192 -.00000233  00000+0  00000+0 0  9995
2 44231   1.7086  74.5145 0009897 284.4070 236.4463  1.00274381 26295
BEIDOU-3 IGSO-2 (C39)   
1 44337U 19035A   26189.30945120 -.00000073  00000+0  00000+0 0  9998
2 44337  55.2505 158.6776 0039609 216.3649 141.5142  1.00259890 25877
BEIDOU-3 M24 (C46)      
1 44542U 19061A   26189.18365047  .00000122  00000+0  00000+0 0  9999
2 44542  54.3975 182.0197 0008572 359.2288   0.7793  1.86229345 46186
BEIDOU-3 M23 (C45)      
1 44543U 19061B   26189.43788944  .00000122  00000+0  00000+0 0  9993
2 44543  54.3960 181.9796 0005861 339.6838 102.2392  1.86227401 46190
BEIDOU-3 M22 (C44)      
1 44793U 19078A   26186.33900275 -.00000058  00000+0  00000+0 0  9996
2 44793  53.9186 299.1896 0005914  49.8831 310.1966  1.86227646 44980
BEIDOU-3 M21 (C43)      
1 44794U 19078B   26189.16367219 -.00000063  00000+0  00000+0 0  9992
2 44794  53.8889 299.0507 0003791  48.5315 311.5256  1.86228045 45041
BEIDOU-3 M19 (C41)      
1 44864U 19090A   26189.14410865 -.00000045  00000+0  00000+0 0  9998
2 44864  56.5765  62.0989 0017044 297.4467 246.9869  1.86231659 44622
BEIDOU-3 M20 (C42)      
1 44865U 19090B   26187.92858764 -.00000042  00000+0  00000+0 0  9994
2 44865  56.5768  62.1737 0014942 312.1641 226.9103  1.86231636 44580
BEIDOU-3 G2 (C60)       
1 45344U 20017A   26189.51539681 -.00000128  00000+0  00000+0 0  9994
2 45344   2.9045  47.6328 0002302  54.8338  89.6158  1.00270352 23473
BEIDOU-3 G3 (C61)       
1 45807U 20040A   26189.57001676 -.00000340  00000+0  00000+0 0  9994
2 45807   2.4964  67.4786 0001989 332.5979 202.1701  1.00267859 22289
BEIDOU-3 G4 (C62)       
1 56564U 23066A   26187.31732966 -.00000268  00000+0  00000+0 0  9999
2 56564   0.4680 336.2679 0005056 178.9368  23.3032  1.00266978 11587
BEIDOU-3 M28 (C50)      
1 58654U 23207A   26189.24067106 -.00000047  00000+0  00000+0 0  9994
2 58654  55.7713  61.5929 0002617   1.0411 359.0204  1.86229661 17230
BEIDOU-3 M26 (C48)      
1 58655U 23207B   26187.96425191 -.00000044  00000+0  00000+0 0  9991
2 58655  55.7724  61.6226 0002296 323.9570  36.0904  1.86229712 17190
BEIDOU-3 M25 (C47)      
1 61186U 24168B   26189.40741741 -.00000066  00000+0  00000+0 0  9998
2 61186  54.4534 301.5057 0003286 292.6840  72.3605  1.86229964 12182
BEIDOU-3 M27 (C49)      
1 61187U 24168C   26189.26617022 -.00000065  00000+0  00000+0 0  9996
2 61187  54.4489 301.4934 0001020  48.3070 357.0720  1.86230038  9653
